<?xml version="1.0" encoding="UTF-8"?>
<ndm xmlns:xsi="http://www.w3.org/2001/XMLSchema-instance" xsi:noNamespaceSchemaLocation="https://sanaregistry.org/r/ndmxml_unqualified/ndmxml-2.0.0-master-2.0.xsd">
<omm id="CCSDS_OMM_VERS" version="2.0">
<header><CREATION_DATE/><ORIGINATOR/></header><body><segment><metadata><OBJECT_NAME>KUIPER-00016</OBJECT_NAME><OBJECT_ID>2025-088J</OBJECT_ID><CENTER_NAME>EARTH</CENTER_NAME><REF_FRAME>TEME</REF_FRAME><TIME_SYSTEM>UTC</TIME_SYSTEM><MEAN_ELEMENT_THEORY>SGP4</MEAN_ELEMENT_THEORY></metadata><data><meanElements><EPOCH>2025-10-26T09:26:19.785120</EPOCH><MEAN_MOTION>14.79887467</MEAN_MOTION><ECCENTRICITY>.0011892</ECCENTRICITY><INCLINATION>51.9005</INCLINATION><RA_OF_ASC_NODE>345.4529</RA_OF_ASC_NODE><ARG_OF_PERICENTER>344.4186</ARG_OF_PERICENTER><MEAN_ANOMALY>15.6409</MEAN_ANOMALY></meanElements><tleParameters><EPHEMERIS_TYPE>0</EPHEMERIS_TYPE><CLASSIFICATION_TYPE>U</CLASSIFICATION_TYPE><NORAD_CAT_ID>63732</NORAD_CAT_ID><ELEMENT_SET_NO>999</ELEMENT_SET_NO><REV_AT_EPOCH>2744</REV_AT_EPOCH><BSTAR>.47282E-3</BSTAR><MEAN_MOTION_DOT>.3382E-4</MEAN_MOTION_DOT><MEAN_MOTION_DDOT>0</MEAN_MOTION_DDOT></tleParameters></data></segment></body></omm>
<omm id="CCSDS_OMM_VERS" version="2.0">
<header><CREATION_DATE/><ORIGINATOR/></header><body><segment><metadata><OBJECT_NAME>KUIPER-00018</OBJECT_NAME><OBJECT_ID>2025-088K</OBJECT_ID><CENTER_NAME>EARTH</CENTER_NAME><REF_FRAME>TEME</REF_FRAME><TIME_SYSTEM>UTC</TIME_SYSTEM><MEAN_ELEMENT_THEORY>SGP4</MEAN_ELEMENT_THEORY></metadata><data><meanElements><EPOCH>2025-10-26T09:26:48.223680</EPOCH><MEAN_MOTION>14.77167882</MEAN_MOTION><ECCENTRICITY>.0013024</ECCENTRICITY><INCLINATION>51.9023</INCLINATION><RA_OF_ASC_NODE>334.2753</RA_OF_ASC_NODE><ARG_OF_PERICENTER>8.8175</ARG_OF_PERICENTER><MEAN_ANOMALY>351.3013</MEAN_ANOMALY></meanElements><tleParameters><EPHEMERIS_TYPE>0</EPHEMERIS_TYPE><CLASSIFICATION_TYPE>U</CLASSIFICATION_TYPE><NORAD_CAT_ID>63733</NORAD_CAT_ID><ELEMENT_SET_NO>999</ELEMENT_SET_NO><REV_AT_EPOCH>2760</REV_AT_EPOCH><BSTAR>.69211E-3</BSTAR><MEAN_MOTION_DOT>.4733E-4</MEAN_MOTION_DOT><MEAN_MOTION_DDOT>0</MEAN_MOTION_DDOT></tleParameters></data></segment></body></omm>
<omm id="CCSDS_OMM_VERS" version="2.0">
<header><CREATION_DATE/><ORIGINATOR/></header><body><segment><metadata><OBJECT_NAME>KUIPER-00019</OBJECT_NAME><OBJECT_ID>2025-088L</OBJECT_ID><CENTER_NAME>EARTH</CENTER_NAME><REF_FRAME>TEME</REF_FRAME><TIME_SYSTEM>UTC</TIME_SYSTEM><MEAN_ELEMENT_THEORY>SGP4</MEAN_ELEMENT_THEORY></metadata><data><meanElements><EPOCH>2025-10-26T14:37:26.803200</EPOCH><MEAN_MOTION>14.80054895</MEAN_MOTION><ECCENTRICITY>.0009631</ECCENTRICITY><INCLINATION>51.8998</INCLINATION><RA_OF_ASC_NODE>332.0016</RA_OF_ASC_NODE><ARG_OF_PERICENTER>22.9645</ARG_OF_PERICENTER><MEAN_ANOMALY>337.1746</MEAN_ANOMALY></meanElements><tleParameters><EPHEMERIS_TYPE>0</EPHEMERIS_TYPE><CLASSIFICATION_TYPE>U</CLASSIFICATION_TYPE><NORAD_CAT_ID>63734</NORAD_CAT_ID><ELEMENT_SET_NO>999</ELEMENT_SET_NO><REV_AT_EPOCH>2765</REV_AT_EPOCH><BSTAR>.26043E-2</BSTAR><MEAN_MOTION_DOT>.1976E-3</MEAN_MOTION_DOT><MEAN_MOTION_DDOT>0</MEAN_MOTION_DDOT></tleParameters></data></segment></body></omm>
<omm id="CCSDS_OMM_VERS" version="2.0">
<header><CREATION_DATE/><ORIGINATOR/></header><body><segment><metadata><OBJECT_NAME>KUIPER-00020</OBJECT_NAME><OBJECT_ID>2025-088M</OBJECT_ID><CENTER_NAME>EARTH</CENTER_NAME><REF_FRAME>TEME</REF_FRAME><TIME_SYSTEM>UTC</TIME_SYSTEM><MEAN_ELEMENT_THEORY>SGP4</MEAN_ELEMENT_THEORY></metadata><data><meanElements><EPOCH>2025-10-26T14:32:00.910176</EPOCH><MEAN_MOTION>14.80056127</MEAN_MOTION><ECCENTRICITY>.0008706</ECCENTRICITY><INCLINATION>51.9023</INCLINATION><RA_OF_ASC_NODE>335.9936</RA_OF_ASC_NODE><ARG_OF_PERICENTER>354.9809</ARG_OF_PERICENTER><MEAN_ANOMALY>5.1065</MEAN_ANOMALY></meanElements><tleParameters><EPHEMERIS_TYPE>0</EPHEMERIS_TYPE><CLASSIFICATION_TYPE>U</CLASSIFICATION_TYPE><NORAD_CAT_ID>63735</NORAD_CAT_ID><ELEMENT_SET_NO>999</ELEMENT_SET_NO><REV_AT_EPOCH>2780</REV_AT_EPOCH><BSTAR>-.778E-2</BSTAR><MEAN_MOTION_DOT>-.5923E-3</MEAN_MOTION_DOT><MEAN_MOTION_DDOT>0</MEAN_MOTION_DDOT></tleParameters></data></segment></body></omm>
<omm id="CCSDS_OMM_VERS" version="2.0">
<header><CREATION_DATE/><ORIGINATOR/></header><body><segment><metadata><OBJECT_NAME>KUIPER-00021</OBJECT_NAME><OBJECT_ID>2025-088N</OBJECT_ID><CENTER_NAME>EARTH</CENTER_NAME><REF_FRAME>TEME</REF_FRAME><TIME_SYSTEM>UTC</TIME_SYSTEM><MEAN_ELEMENT_THEORY>SGP4</MEAN_ELEMENT_THEORY></metadata><data><meanElements><EPOCH>2025-10-26T09:37:48.242784</EPOCH><MEAN_MOTION>14.79914689</MEAN_MOTION><ECCENTRICITY>.0006253</ECCENTRICITY><INCLINATION>51.9017</INCLINATION><RA_OF_ASC_NODE>337.8983</RA_OF_ASC_NODE><ARG_OF_PERICENTER>3.6173</ARG_OF_PERICENTER><MEAN_ANOMALY>356.4833</MEAN_ANOMALY></meanElements><tleParameters><EPHEMERIS_TYPE>0</EPHEMERIS_TYPE><CLASSIFICATION_TYPE>U</CLASSIFICATION_TYPE><NORAD_CAT_ID>63736</NORAD_CAT_ID><ELEMENT_SET_NO>999</ELEMENT_SET_NO><REV_AT_EPOCH>2759</REV_AT_EPOCH><BSTAR>.53768E-3</BSTAR><MEAN_MOTION_DOT>.3878E-4</MEAN_MOTION_DOT><MEAN_MOTION_DDOT>0</MEAN_MOTION_DDOT></tleParameters></data></segment></body></omm>
<omm id="CCSDS_OMM_VERS" version="2.0">
<header><CREATION_DATE/><ORIGINATOR/></header><body><segment><metadata><OBJECT_NAME>KUIPER-00023</OBJECT_NAME><OBJECT_ID>2025-088P</OBJECT_ID><CENTER_NAME>EARTH</CENTER_NAME><REF_FRAME>TEME</REF_FRAME><TIME_SYSTEM>UTC</TIME_SYSTEM><MEAN_ELEMENT_THEORY>SGP4</MEAN_ELEMENT_THEORY></metadata><data><meanElements><EPOCH>2025-10-26T09:36:17.635104</EPOCH><MEAN_MOTION>14.79943938</MEAN_MOTION><ECCENTRICITY>.0011841</ECCENTRICITY><INCLINATION>51.9026</INCLINATION><RA_OF_ASC_NODE>339.3698</RA_OF_ASC_NODE><ARG_OF_PERICENTER>16.0904</ARG_OF_PERICENTER><MEAN_ANOMALY>344.0432</MEAN_ANOMALY></meanElements><tleParameters><EPHEMERIS_TYPE>0</EPHEMERIS_TYPE><CLASSIFICATION_TYPE>U</CLASSIFICATION_TYPE><NORAD_CAT_ID>63737</NORAD_CAT_ID><ELEMENT_SET_NO>999</ELEMENT_SET_NO><REV_AT_EPOCH>2787</REV_AT_EPOCH><BSTAR>-.52525E-4</BSTAR><MEAN_MOTION_DOT>-.625E-5</MEAN_MOTION_DOT><MEAN_MOTION_DDOT>0</MEAN_MOTION_DDOT></tleParameters></data></segment></body></omm>
<omm id="CCSDS_OMM_VERS" version="2.0">
<header><CREATION_DATE/><ORIGINATOR/></header><body><segment><metadata><OBJECT_NAME>KUIPER-00024</OBJECT_NAME><OBJECT_ID>2025-088Q</OBJECT_ID><CENTER_NAME>EARTH</CENTER_NAME><REF_FRAME>TEME</REF_FRAME><TIME_SYSTEM>UTC</TIME_SYSTEM><MEAN_ELEMENT_THEORY>SGP4</MEAN_ELEMENT_THEORY></metadata><data><meanElements><EPOCH>2025-10-26T06:17:47.942016</EPOCH><MEAN_MOTION>14.79365971</MEAN_MOTION><ECCENTRICITY>.0004723</ECCENTRICITY><INCLINATION>51.9036</INCLINATION><RA_OF_ASC_NODE>327.3470</RA_OF_ASC_NODE><ARG_OF_PERICENTER>15.5930</ARG_OF_PERICENTER><MEAN_ANOMALY>344.5177</MEAN_ANOMALY></meanElements><tleParameters><EPHEMERIS_TYPE>0</EPHEMERIS_TYPE><CLASSIFICATION_TYPE>U</CLASSIFICATION_TYPE><NORAD_CAT_ID>63738</NORAD_CAT_ID><ELEMENT_SET_NO>999</ELEMENT_SET_NO><REV_AT_EPOCH>2815</REV_AT_EPOCH><BSTAR>.41763E-3</BSTAR><MEAN_MOTION_DOT>.2922E-4</MEAN_MOTION_DOT><MEAN_MOTION_DDOT>0</MEAN_MOTION_DDOT></tleParameters></data></segment></body></omm>
<omm id="CCSDS_OMM_VERS" version="2.0">
<header><CREATION_DATE/><ORIGINATOR/></header><body><segment><metadata><OBJECT_NAME>KUIPER-00025</OBJECT_NAME><OBJECT_ID>2025-088R</OBJECT_ID><CENTER_NAME>EARTH</CENTER_NAME><REF_FRAME>TEME</REF_FRAME><TIME_SYSTEM>UTC</TIME_SYSTEM><MEAN_ELEMENT_THEORY>SGP4</MEAN_ELEMENT_THEORY></metadata><data><meanElements><EPOCH>2025-10-26T09:41:07.168416</EPOCH><MEAN_MOTION>14.80202787</MEAN_MOTION><ECCENTRICITY>.0009263</ECCENTRICITY><INCLINATION>51.9011</INCLINATION><RA_OF_ASC_NODE>335.4112</RA_OF_ASC_NODE><ARG_OF_PERICENTER>354.9905</ARG_OF_PERICENTER><MEAN_ANOMALY>5.0963</MEAN_ANOMALY></meanElements><tleParameters><EPHEMERIS_TYPE>0</EPHEMERIS_TYPE><CLASSIFICATION_TYPE>U</CLASSIFICATION_TYPE><NORAD_CAT_ID>63739</NORAD_CAT_ID><ELEMENT_SET_NO>999</ELEMENT_SET_NO><REV_AT_EPOCH>2791</REV_AT_EPOCH><BSTAR>.55341E-3</BSTAR><MEAN_MOTION_DOT>.4027E-4</MEAN_MOTION_DOT><MEAN_MOTION_DDOT>0</MEAN_MOTION_DDOT></tleParameters></data></segment></body></omm>

</ndm>
