KUIPER-00016            
1 63732U 25088J   25299.39328455  .00003382  00000+0  47282-3 0  9991
2 63732  51.9005 345.4529 0011892 344.4186  15.6409 14.79887467 27449
KUIPER-00018            
1 63733U 25088K   25299.39361370  .00004733  00000+0  69211-3 0  9992
2 63733  51.9023 334.2753 0013024   8.8175 351.3013 14.77167882 27602
KUIPER-00019            
1 63734U 25088L   25299.60933800  .00019760  00000+0  26043-2 0  9991
2 63734  51.8998 332.0016 0009631  22.9645 337.1746 14.80054895 27652
KUIPER-00020            
1 63735U 25088M   25299.60556609 -.00059230  00000+0 -77800-2 0  9995
2 63735  51.9023 335.9936 0008706 354.9809   5.1065 14.80056127 27801
KUIPER-00021            
1 63736U 25088N   25299.40125281  .00003878  00000+0  53768-3 0  9995
2 63736  51.9017 337.8983 0006253   3.6173 356.4833 14.79914689 27590
KUIPER-00023            
1 63737U 25088P   25299.40020411 -.00000625  00000+0 -52525-4 0  9995
2 63737  51.9026 339.3698 0011841  16.0904 344.0432 14.79943938 27878
KUIPER-00024            
1 63738U 25088Q   25299.26236044  .00002922  00000+0  41763-3 0  9992
2 63738  51.9036 327.3470 0004723  15.5930 344.5177 14.79365971 28157
KUIPER-00025            
1 63739U 25088R   25299.40355519  .00004027  00000+0  55341-3 0  9993
2 63739  51.9011 335.4112 0009263 354.9905   5.0963 14.80202787 27912
